{
  "type": "FeatureCollection",
  "name": "chennai_tangedco_electrical_substations",
  "crs": {
    "type": "name",
    "properties": {
      "name": "urn:ogc:def:crs:OGC:1.3:CRS84"
    }
  },
  "features": [
    { "type": "Feature", "properties": { "id": "SS-001", "name": "Mylapore Substation", "voltage": "230/110/33 kV", "type": "AIS", "elevation_m": 7.5, "plinth_cm": 60, "flood_risk": "Medium", "criticality": "Tier-1 Grid" }, "geometry": { "type": "Point", "coordinates": [ 80.2612, 13.0384 ] } },
    { "type": "Feature", "properties": { "id": "SS-002", "name": "T. Nagar Substation", "voltage": "110/33/11 kV", "type": "GIS", "elevation_m": 6.2, "plinth_cm": 85, "flood_risk": "High", "criticality": "Tier-2 Urban" }, "geometry": { "type": "Point", "coordinates": [ 80.2356, 13.0415 ] } },
    { "type": "Feature", "properties": { "id": "SS-003", "name": "Alandur Substation", "voltage": "230/110 kV", "type": "AIS", "elevation_m": 11.0, "plinth_cm": 75, "flood_risk": "Low", "criticality": "Tier-1 Grid" }, "geometry": { "type": "Point", "coordinates": [ 80.2054, 13.0012 ] } },
    { "type": "Feature", "properties": { "id": "SS-004", "name": "Guindy Substation", "voltage": "230/110 kV", "type": "AIS", "elevation_m": 8.5, "plinth_cm": 70, "flood_risk": "Medium", "criticality": "Tier-1 Grid" }, "geometry": { "type": "Point", "coordinates": [ 80.2115, 13.0124 ] } },
    { "type": "Feature", "properties": { "id": "SS-005", "name": "Velachery Substation", "voltage": "110/33 kV", "type": "AIS", "elevation_m": 4.8, "plinth_cm": 45, "flood_risk": "Critical", "criticality": "Tier-2 Urban" }, "geometry": { "type": "Point", "coordinates": [ 80.2214, 12.9782 ] } },
    { "type": "Feature", "properties": { "id": "SS-006", "name": "Koyambedu Substation", "voltage": "230/110 kV", "type": "GIS", "elevation_m": 9.2, "plinth_cm": 80, "flood_risk": "Medium", "criticality": "Tier-1 Grid" }, "geometry": { "type": "Point", "coordinates": [ 80.1945, 13.0712 ] } },
    { "type": "Feature", "properties": { "id": "SS-007", "name": "Anna Nagar Substation", "voltage": "110/33 kV", "type": "AIS", "elevation_m": 12.5, "plinth_cm": 70, "flood_risk": "Low", "criticality": "Tier-2 Urban" }, "geometry": { "type": "Point", "coordinates": [ 80.2185, 13.0845 ] } },
    { "type": "Feature", "properties": { "id": "SS-008", "name": "Manali Substation", "voltage": "230/110 kV", "type": "AIS", "elevation_m": 3.5, "plinth_cm": 40, "flood_risk": "Critical", "criticality": "Tier-1 Grid" }, "geometry": { "type": "Point", "coordinates": [ 80.2581, 13.1672 ] } },
    { "type": "Feature", "properties": { "id": "SS-009", "name": "Tondiarpet Substation", "voltage": "110/33 kV", "type": "AIS", "elevation_m": 4.2, "plinth_cm": 50, "flood_risk": "High", "criticality": "Tier-2 Urban" }, "geometry": { "type": "Point", "coordinates": [ 80.2865, 13.1250 ] } },
    { "type": "Feature", "properties": { "id": "SS-010", "name": "Royapuram Substation", "voltage": "110/33 kV", "type": "GIS", "elevation_m": 5.0, "plinth_cm": 75, "flood_risk": "Medium", "criticality": "Tier-2 Urban" }, "geometry": { "type": "Point", "coordinates": [ 80.2921, 13.1085 ] } },
    { "type": "Feature", "properties": { "id": "SS-011", "name": "Kilpauk Substation", "voltage": "110/33 kV", "type": "AIS", "elevation_m": 8.0, "plinth_cm": 65, "flood_risk": "Medium", "criticality": "Tier-2 Urban" }, "geometry": { "type": "Point", "coordinates": [ 80.2432, 13.0815 ] } },
    { "type": "Feature", "properties": { "id": "SS-012", "name": "Adyar Substation", "voltage": "110/33 kV", "type": "GIS", "elevation_m": 6.0, "plinth_cm": 80, "flood_risk": "Low", "criticality": "Tier-2 Urban" }, "geometry": { "type": "Point", "coordinates": [ 80.2541, 12.9985 ] } },
    { "type": "Feature", "properties": { "id": "SS-013", "name": "Perungudi Substation", "voltage": "230/110 kV", "type": "AIS", "elevation_m": 3.8, "plinth_cm": 45, "flood_risk": "Critical", "criticality": "Tier-1 Grid" }, "geometry": { "type": "Point", "coordinates": [ 80.2415, 12.9620 ] } },
    { "type": "Feature", "properties": { "id": "SS-014", "name": "Sholinganallur Substation", "voltage": "230/110 kV", "type": "GIS", "elevation_m": 5.5, "plinth_cm": 80, "flood_risk": "High", "criticality": "Tier-1 Grid" }, "geometry": { "type": "Point", "coordinates": [ 80.2285, 12.9015 ] } },
    { "type": "Feature", "properties": { "id": "SS-015", "name": "Ambattur Substation", "voltage": "230/110 kV", "type": "AIS", "elevation_m": 15.2, "plinth_cm": 70, "flood_risk": "Low", "criticality": "Tier-1 Grid" }, "geometry": { "type": "Point", "coordinates": [ 80.1654, 13.1025 ] } },
    { "type": "Feature", "properties": { "id": "SS-016", "name": "Madhavaram Substation", "voltage": "110/33 kV", "type": "AIS", "elevation_m": 8.8, "plinth_cm": 60, "flood_risk": "Medium", "criticality": "Tier-2 Urban" }, "geometry": { "type": "Point", "coordinates": [ 80.2312, 13.1480 ] } },
    { "type": "Feature", "properties": { "id": "SS-017", "name": "Porur Substation", "voltage": "230/110 kV", "type": "AIS", "elevation_m": 14.0, "plinth_cm": 70, "flood_risk": "Low", "criticality": "Tier-1 Grid" }, "geometry": { "type": "Point", "coordinates": [ 80.1582, 13.0354 ] } },
    { "type": "Feature", "properties": { "id": "SS-018", "name": "Kodambakkam Substation", "voltage": "110/33 kV", "type": "AIS", "elevation_m": 7.8, "plinth_cm": 65, "flood_risk": "Medium", "criticality": "Tier-2 Urban" }, "geometry": { "type": "Point", "coordinates": [ 80.2245, 13.0512 ] } },
    { "type": "Feature", "properties": { "id": "SS-019", "name": "Pallavaram Substation", "voltage": "110/33 kV", "type": "AIS", "elevation_m": 13.5, "plinth_cm": 65, "flood_risk": "Low", "criticality": "Tier-2 Urban" }, "geometry": { "type": "Point", "coordinates": [ 80.1458, 12.9721 ] } },
    { "type": "Feature", "properties": { "id": "SS-020", "name": "Ennore 400kV Grid Substation", "voltage": "400/230 kV", "type": "AIS", "elevation_m": 2.8, "plinth_cm": 90, "flood_risk": "High", "criticality": "Major Super Grid" }, "geometry": { "type": "Point", "coordinates": [ 80.3120, 13.2085 ] } }
  ]
}
